ONEWEB-0267             
1 48985U 21060U   21359.58334491 -.00015666  00000+0 -41072-1 0  9990
2 48985  87.9124 193.9757 0002018  70.1295 218.8998 13.16611571  3294
ONEWEB-0268             
1 48986U 21060V   21359.58334491 -.00016789  00000+0 -44016-1 0  9999
2 48986  87.9156 193.9466 0001937  82.2011 343.1607 13.16618879  3305
ONEWEB-0269             
1 48987U 21060W   21359.58334491 -.00014563  00000+0 -38182-1 0  9995
2 48987  87.9148 193.9952 0001717  88.1347  81.0136 13.16606630  3295
ONEWEB-0270             
1 48988U 21060X   21359.58334491 -.00016264  00000+0 -42647-1 0  9997
2 48988  87.9134 193.9530 0001332  91.1251   1.5684 13.16604542  3299
ONEWEB-0271             
1 48989U 21060Y   21359.58334491 -.00014970  00000+0 -39249-1 0  9994
2 48989  87.9118 193.9947 0001727  65.2146  82.0985 13.16605921  3297
ONEWEB-0272             
1 48990U 21060Z   21359.58334491 -.00017089  00000+0 -44810-1 0  9990
2 48990  87.9142 193.9683 0001776  72.9258 325.2504 13.16607960  3302
ONEWEB-0273             
1 48991U 21060AA  21359.58334491 -.00015980  00000+0 -41896-1 0  9990
2 48991  87.9133 193.9566 0001449  73.2019 226.8137 13.16612868  3298
ONEWEB-0274             
1 48992U 21060AB  21359.58334491 -.00014371  00000+0 -37680-1 0  9990
2 48992  87.9161 194.0156 0001609  68.7559 111.2832 13.16603514  3290
ONEWEB-0275             
1 48993U 21060AC  21359.58334491 -.00014463  00000+0 -37917-1 0  9996
2 48993  87.9138 193.9783 0001732  73.5147 161.0226 13.16611079  3300
ONEWEB-0276             
1 48994U 21060AD  21359.58334491 -.00016550  00000+0 -43395-1 0  9993
2 48994  87.9128 194.0352 0001485  64.5062   6.4339 13.16607920  3302
ONEWEB-0277             
1 48995U 21060AE  21359.58334491 -.00017044  00000+0 -44689-1 0  9990
2 48995  87.9134 194.0357 0001837  60.5796 304.8960 13.16610912  3306
ONEWEB-0278             
1 48996U 21060AF  21359.58334491 -.00017008  00000+0 -44596-1 0  9998
2 48996  87.9182 193.8621 0001475  76.5206 343.4514 13.16608448  3295
ONEWEB-0279             
1 48997U 21060AG  21359.58334491 -.00017191  00000+0 -45076-1 0  9996
2 48997  87.9141 193.9538 0001327  91.7695 284.6296 13.16611042  3305
ONEWEB-0280             
1 48998U 21060AH  21359.58334491 -.00016219  00000+0 -42525-1 0  9993
2 48998  87.9131 193.9842 0002116  55.5342 255.3889 13.16611914  3296
ONEWEB-0281             
1 48999U 21060AJ  21359.58334491 -.00015427  00000+0 -40447-1 0  9995
2 48999  87.9151 193.9426 0002026  93.1740 184.9399 13.16611456  3280
ONEWEB-0282             
1 49000U 21060AK  21359.58334491 -.00015183  00000+0 -39806-1 0  9995
2 49000  87.9128 194.0132 0001454  64.5557  71.7340 13.16610830  3291
ONEWEB-0283             
1 49001U 21060AL  21359.58334491 -.00014264  00000+0 -37398-1 0  9999
2 49001  87.9127 194.0180 0001722  71.9400 118.8867 13.16604579  3291
ONEWEB-0284             
1 49002U 21060AM  21359.58334491 -.00014316  00000+0 -37533-1 0  9999
2 49002  87.9166 193.9955 0001355  69.3637 154.2206 13.16608124  3299
ONEWEB-0285             
1 49075U 21075A   21359.58334491 -.00050233  00000+0 -57995-2 0  9998
2 49075  87.5328 325.9296 0015973 201.6095 195.7642 14.85924106  3540
ONEWEB-0286             
1 49076U 21075B   21359.58334491 -.00050253  00000+0 -59857-2 0  9990
2 49076  87.2698 321.9791 0019036 205.9755 312.3649 14.84601362  3536
ONEWEB-0287             
1 49077U 21075C   21359.58334491 -.00045168  00000+0 -95648-1 0  9997
2 49077  87.9607 330.8850 0001357  86.4739  32.8596 13.31125912  3314
ONEWEB-0288             
1 49078U 21075D   21359.58334491 -.00054483  00000+0 -62964-2 0  9994
2 49078  87.5366 325.9377 0016793 209.3826   1.2324 14.85896347  3535
ONEWEB-0289             
1 49079U 21075E   21359.58334491  .00000014  00000+0  00000+0 0  9994
2 49079  88.1931 328.5923 0018047 223.2854 169.4720 13.61841865  3420
ONEWEB-0290             
1 49080U 21075F   21359.58334491 -.00042206  00000+0 -10836+0 0  9995
2 49080  87.9114 330.8918 0001140  93.9220 279.9430 13.18199599 19331
ONEWEB-0291             
1 49081U 21075G   21359.58334491 -.00043392  00000+0 -11157+0 0  9990
2 49081  87.9145 330.8961 0001413  93.7951 332.5654 13.18105861  3321
ONEWEB-0293             
1 49082U 21075H   21359.58334491  .00000013  00000+0  00000+0 0  9997
2 49082  87.9105 330.8598 0001017 106.3747 243.2874 13.19155936  3318
ONEWEB-0294             
1 49083U 21075J   21359.58334491 -.00048571  00000+0 -57840-2 0  9998
2 49083  87.2669 321.9766 0020677 199.7788  47.0003 14.84577261  3540
ONEWEB-0295             
1 49084U 21075K   21359.58334491 -.00041658  00000+0 -10778+0 0  9994
2 49084  87.9090 330.8411 0001283 105.4729 234.5296 13.17671406  3316
ONEWEB-0296             
1 49085U 21075L   21359.58334491 -.00049059  00000+0 -58468-2 0  9999
2 49085  87.2880 321.9800 0020528 206.9593 264.8004 14.84549072  3534
ONEWEB-0297             
1 49086U 21075M   21359.58334491 -.00050029  00000+0 -57743-2 0  9994
2 49086  87.5321 325.9302 0016446 196.9400 191.4694 14.85929158  3547
ONEWEB-0298             
1 49087U 21075N   21359.58334491 -.00043836  00000+0 -10298+0 0  9994
2 49087  87.9411 330.8274 0002547  93.1684 335.0882 13.24201973  3303
ONEWEB-0299             
1 49088U 21075P   21359.58334491 -.00126152  00000+0 -32939+0 0  9994
2 49088  87.9072 330.7952 0001142  85.9576 239.4952 13.17662398  3318
ONEWEB-0300             
1 49089U 21075Q   21359.58334491 -.00053878  00000+0 -62221-2 0  9999
2 49089  87.5357 325.9134 0017632 207.0041  38.2778 14.85911205  3539
ONEWEB-0301             
1 49090U 21075R   21359.58334491 -.00046935  00000+0 -55876-2 0  9995
2 49090  87.2982 321.9382 0018534 203.8283 119.4619 14.84611899  3538
ONEWEB-0302             
1 49091U 21075S   21359.58334491 -.00046336  00000+0 -55136-2 0  9990
2 49091  87.2961 321.9038 0019904 198.8144 185.3025 14.84608214  3557
ONEWEB-0304             
1 49092U 21075T   21359.58334491 -.00042700  00000+0 -11048+0 0  9993
2 49092  87.9113 330.8531 0001867  86.2482 312.6285 13.17676010  3316
ONEWEB-0305             
1 49093U 21075U   21359.58334491 -.00043570  00000+0 -11276+0 0  9993
2 49093  87.9132 330.8862 0001651 102.8258 332.8048 13.17664785  3319
ONEWEB-0308             
1 49094U 21075V   21359.58334491 -.00049276  00000+0 -58663-2 0  9997
2 49094  87.2850 321.9907 0018616 206.8772  17.6379 14.84623175  3538
ONEWEB-0309             
1 49095U 21075W   21359.58334491 -.00043036  00000+0 -11135+0 0  9996
2 49095  87.9123 330.8792 0000337 156.6441 256.5153 13.17678609  3324
ONEWEB-0310             
1 49096U 21075X   21359.58334491 -.00052599  00000+0 -60768-2 0  9990
2 49096  87.5392 326.0015 0015522 207.0640 266.0389 14.85914561  3545
ONEWEB-0311             
1 49097U 21075Y   21359.58334491 -.00042081  00000+0 -10887+0 0  9990
2 49097  87.9081 330.8960 0001603 104.3108 295.5833 13.17678211  3319
ONEWEB-0312             
1 49098U 21075Z   21359.58334491 -.00008131  00000+0 -20991-1 0  9998
2 49098  87.9143 330.8146 0001409  94.6274 259.6705 13.17657411  3312
ONEWEB-0313             
1 49099U 21075AA  21359.58334491 -.00043244  00000+0 -11194+0 0  9996
2 49099  87.9097 330.8956 0001231 100.6750 321.0428 13.17649112  3326
ONEWEB-0314             
1 49100U 21075AB  21359.58334491 -.00043747  00000+0 -11325+0 0  9993
2 49100  87.9102 330.8817 0001458  91.7014 351.4852 13.17647112  3311
ONEWEB-0315             
1 49101U 21075AC  21359.58334491 -.00068753  00000+0 -79584-2 0  9992
2 49101  87.5350 325.9235 0016935 206.0584 290.5949 14.85907778  3550
ONEWEB-0316             
1 49102U 21075AD  21359.58334491 -.00048834  00000+0 -56378-2 0  9997
2 49102  87.1998 321.8912 0017695 189.1835 275.9282 14.85896778  3549
ONEWEB-0317             
1 49103U 21075AE  21359.58334491 -.00049851  00000+0 -57537-2 0  9996
2 49103  87.5325 325.7738 0017501 205.1711 140.7406 14.85914533  3531
ONEWEB-0318             
1 49104U 21075AF  21359.58334491 -.00050021  00000+0 -57733-2 0  9996
2 49104  87.1951 321.8263 0018519 187.7155 312.7132 14.85902507  3557
ONEWEB-0319             
1 49105U 21075AG  21359.58334491 -.00294758  00000+0 -78125+0 0  9999
2 49105  87.9125 330.8459 0002349  99.2901 284.6265 13.17887152  3316
ONEWEB-0323             
1 49106U 21075AH  21359.58334491 -.00088769  00000+0 -10625-1 0  9996
2 49106  87.2755 321.9316 0020704 196.3259 229.2825 14.84591406  3554
ONEWEB-0329             
1 49107U 21075AJ  21359.58334491 -.00318444  00000+0 -84792+0 0  9997
2 49107  87.9061 330.8716 0001212 113.1757 254.9713 13.17749639  3311
ONEWEB-0330             
1 49108U 21075AK  21359.58334491 -.00041959  00000+0 -10794+0 0  9993
2 49108  87.9106 330.8686 0001694  96.0563 264.7247 13.18061722  3307
ONEWEB-0292             
1 49186U 21083A   21359.58334491  .00005349  00000+0  59087-3 0  9991
2 49186  87.1991 292.1850 0018246 305.5953 164.4634 14.87145755  3551
ONEWEB-0303             
1 49187U 21083B   21359.58334491  .00000013  00000+0  00000+0 0  9992
2 49187  87.9113 300.3940 0002984  77.0747 104.2439 13.20761393  3308
ONEWEB-0306             
1 49188U 21083C   21359.58334491  .00000013  00000+0  00000+0 0  9993
2 49188  87.9278 300.3763 0002055  85.0834 114.2618 13.23969648  3316
ONEWEB-0307             
1 49189U 21083D   21359.58334491  .00006885  00000+0  76165-3 0  9996
2 49189  87.2092 292.2211 0015723 296.6886  39.1185 14.87157462  3558
ONEWEB-0320             
1 49190U 21083E   21359.58334491  .00000013  00000+0  00000+0 0  9996
2 49190  87.9098 300.3921 0000351  23.3263 163.8692 13.19346089  3329
ONEWEB-0321             
1 49191U 21083F   21359.58334491  .00005893  00000+0  61170-3 0  9997
2 49191  87.2062 292.1417 0018509 305.0285 146.4375 14.89677317  3560
ONEWEB-0322             
1 49192U 21083G   21359.58334491  .00005745  00000+0  63544-3 0  9991
2 49192  87.2003 292.1974 0017125 308.1286 133.7290 14.87118735  3547
